ONEWEB-0233             
1 48795U 21045AE  24184.83707536  .00000169  00000+0  41686-3 0  9996
2 48795  87.9029  41.3978 0002015  82.2407 277.8951 13.15066211150374
ONEWEB-0190             
1 48796U 21045AF  24185.36037295  .00000235  00000+0  59052-3 0  9994
2 48796  87.9028  41.2550 0002507  64.0017 296.1372 13.15547274151634
ONEWEB-0236             
1 48797U 21045AG  24185.52991404  .00000057  00000+0  11651-3 0  9999
2 48797  87.9032  41.2156 0001785  78.6069 281.5262 13.15546870151544
ONEWEB-0248             
1 48798U 21045AH  24185.54258413 -.00000058  00000+0 -18773-3 0  9993
2 48798  87.9023  41.2023 0001860  58.2105 301.9206 13.15550590151704
ONEWEB-0225             
1 48799U 21045AJ  24185.56476692 -.00000324  00000+0 -89409-3 0  9997
2 48799  87.9027  41.2106 0002067  71.3248 288.8107 13.15548316151734
ONEWEB-0215             
1 48800U 21045AK  24185.53466574  .00000009  00000+0 -10299-4 0  9996
2 48800  87.9022  41.1899 0002177  58.5702 301.5641 13.15547029151583
ONEWEB-0216             
1 48801U 21045AL  24184.63148355 -.00000085  00000+0 -25929-3 0  9991
2 48801  87.9026  41.4109 0002116  85.0629 275.0743 13.15550086150350
ONEWEB-0239             
1 48802U 21045AM  24185.16863573 -.00000147  00000+0 -42406-3 0  9995
2 48802  87.9032  41.2810 0002012  54.0555 306.0762 13.15547230151606
